[Satellite]
VERSION=1.1
NAME=JPSS-1
NICKNAME=JPSS-1
TLE1=1 43013U 17073A   19317.54451578 -.00000004  00000-0  18974-4 0  9997
TLE2=2 43013  98.7335 253.5248 0000781  96.7690 263.3575 14.19548071102880
STATUS=1
